[{"CCSDS_OMM_VERS":"3.0","COMMENT":"GENERATED VIA SPACE-TRACK.ORG API","CREATION_DATE":"2026-05-27T02:28:57","ORIGINATOR":"18 SPCS","OBJECT_NAME":"BEIDOU 3M12","OBJECT_ID":"2018-067B","CENTER_NAME":"EARTH","REF_FRAME":"TEME","TIME_SYSTEM":"UTC","MEAN_ELEMENT_THEORY":"SGP4","EPOCH":"2026-05-26T13:34:36.176736","MEAN_MOTION":"1.86227139","ECCENTRICITY":"0.00044782","INCLINATION":"54.1759","RA_OF_ASC_NODE":"181.7371","ARG_OF_PERICENTER":"15.1856","MEAN_ANOMALY":"344.9017","EPHEMERIS_TYPE":"0","CLASSIFICATION_TYPE":"U","NORAD_CAT_ID":"43603","ELEMENT_SET_NO":"999","REV_AT_EPOCH":"5274","BSTAR":"0.00000000000000","MEAN_MOTION_DOT":"0.00000083","MEAN_MOTION_DDOT":"0.0000000000000","SEMIMAJOR_AXIS":"27906.574","PERIOD":"773.249","APOAPSIS":"21540.936","PERIAPSIS":"21515.942","OBJECT_TYPE":"PAYLOAD","RCS_SIZE":"LARGE","COUNTRY_CODE":"PRC","LAUNCH_DATE":"2018-08-24","SITE":"XSC","DECAY_DATE":null,"FILE":"5214677","GP_ID":"325069617","TLE_LINE0":"0 BEIDOU 3M12","TLE_LINE1":"1 43603U 18067B   26146.56569649  .00000083  00000-0  00000-0 0  9998","TLE_LINE2":"2 43603  54.1759 181.7371 0004478  15.1856 344.9017  1.86227139 52741"},{"CCSDS_OMM_VERS":"3.0","COMMENT":"GENERATED VIA SPACE-TRACK.ORG API","CREATION_DATE":"2026-05-27T10:30:52","ORIGINATOR":"18 SPCS","OBJECT_NAME":"BEIDOU 3M12","OBJECT_ID":"2018-067B","CENTER_NAME":"EARTH","REF_FRAME":"TEME","TIME_SYSTEM":"UTC","MEAN_ELEMENT_THEORY":"SGP4","EPOCH":"2026-05-27T02:27:49.597632","MEAN_MOTION":"1.86227196","ECCENTRICITY":"0.00044843","INCLINATION":"54.1759","RA_OF_ASC_NODE":"181.7187","ARG_OF_PERICENTER":"14.6553","MEAN_ANOMALY":"345.4333","EPHEMERIS_TYPE":"0","CLASSIFICATION_TYPE":"U","NORAD_CAT_ID":"43603","ELEMENT_SET_NO":"999","REV_AT_EPOCH":"5275","BSTAR":"0.00000000000000","MEAN_MOTION_DOT":"0.00000087","MEAN_MOTION_DDOT":"0.0000000000000","SEMIMAJOR_AXIS":"27906.569","PERIOD":"773.249","APOAPSIS":"21540.948","PERIAPSIS":"21515.920","OBJECT_TYPE":"PAYLOAD","RCS_SIZE":"LARGE","COUNTRY_CODE":"PRC","LAUNCH_DATE":"2018-08-24","SITE":"XSC","DECAY_DATE":null,"FILE":"5215548","GP_ID":"325183672","TLE_LINE0":"0 BEIDOU 3M12","TLE_LINE1":"1 43603U 18067B   26147.10265738  .00000087  00000-0  00000-0 0  9995","TLE_LINE2":"2 43603  54.1759 181.7187 0004484  14.6553 345.4333  1.86227196 52752"},{"CCSDS_OMM_VERS":"3.0","COMMENT":"GENERATED VIA SPACE-TRACK.ORG API","CREATION_DATE":"2026-05-27T07:27:04","ORIGINATOR":"18 SPCS","OBJECT_NAME":"BEIDOU 3M12","OBJECT_ID":"2018-067B","CENTER_NAME":"EARTH","REF_FRAME":"TEME","TIME_SYSTEM":"UTC","MEAN_ELEMENT_THEORY":"SGP4","EPOCH":"2026-05-27T02:27:49.597632","MEAN_MOTION":"1.86227196","ECCENTRICITY":"0.00044840","INCLINATION":"54.1759","RA_OF_ASC_NODE":"181.7187","ARG_OF_PERICENTER":"14.6553","MEAN_ANOMALY":"345.4333","EPHEMERIS_TYPE":"0","CLASSIFICATION_TYPE":"U","NORAD_CAT_ID":"43603","ELEMENT_SET_NO":"999","REV_AT_EPOCH":"5275","BSTAR":"0.00000000000000","MEAN_MOTION_DOT":"0.00000087","MEAN_MOTION_DDOT":"0.0000000000000","SEMIMAJOR_AXIS":"27906.569","PERIOD":"773.249","APOAPSIS":"21540.947","PERIAPSIS":"21515.920","OBJECT_TYPE":"PAYLOAD","RCS_SIZE":"LARGE","COUNTRY_CODE":"PRC","LAUNCH_DATE":"2018-08-24","SITE":"XSC","DECAY_DATE":null,"FILE":"5214933","GP_ID":"325111162","TLE_LINE0":"0 BEIDOU 3M12","TLE_LINE1":"1 43603U 18067B   26147.10265738  .00000087  00000-0  00000+0 0  9994","TLE_LINE2":"2 43603  54.1759 181.7187 0004484  14.6553 345.4333  1.86227196 52752"},{"CCSDS_OMM_VERS":"3.0","COMMENT":"GENERATED VIA SPACE-TRACK.ORG API","CREATION_DATE":"2026-05-28T10:52:39","ORIGINATOR":"18 SPCS","OBJECT_NAME":"BEIDOU 3M12","OBJECT_ID":"2018-067B","CENTER_NAME":"EARTH","REF_FRAME":"TEME","TIME_SYSTEM":"UTC","MEAN_ELEMENT_THEORY":"SGP4","EPOCH":"2026-05-28T04:14:16.537056","MEAN_MOTION":"1.86227234","ECCENTRICITY":"0.00045050","INCLINATION":"54.1760","RA_OF_ASC_NODE":"181.6822","ARG_OF_PERICENTER":"14.1321","MEAN_ANOMALY":"345.9588","EPHEMERIS_TYPE":"0","CLASSIFICATION_TYPE":"U","NORAD_CAT_ID":"43603","ELEMENT_SET_NO":"999","REV_AT_EPOCH":"5277","BSTAR":"0.00000000000000","MEAN_MOTION_DOT":"0.00000092","MEAN_MOTION_DDOT":"0.0000000000000","SEMIMAJOR_AXIS":"27906.565","PERIOD":"773.249","APOAPSIS":"21541.002","PERIAPSIS":"21515.858","OBJECT_TYPE":"PAYLOAD","RCS_SIZE":"LARGE","COUNTRY_CODE":"PRC","LAUNCH_DATE":"2018-08-24","SITE":"XSC","DECAY_DATE":null,"FILE":"5218154","GP_ID":"325527397","TLE_LINE0":"0 BEIDOU 3M12","TLE_LINE1":"1 43603U 18067B   26148.17658029  .00000092  00000-0  00000-0 0  9998","TLE_LINE2":"2 43603  54.1760 181.6822 0004505  14.1321 345.9588  1.86227234 52773"},{"CCSDS_OMM_VERS":"3.0","COMMENT":"GENERATED VIA SPACE-TRACK.ORG API","CREATION_DATE":"2026-05-28T15:57:22","ORIGINATOR":"18 SPCS","OBJECT_NAME":"BEIDOU 3M12","OBJECT_ID":"2018-067B","CENTER_NAME":"EARTH","REF_FRAME":"TEME","TIME_SYSTEM":"UTC","MEAN_ELEMENT_THEORY":"SGP4","EPOCH":"2026-05-28T04:14:16.537056","MEAN_MOTION":"1.86227234","ECCENTRICITY":"0.00045050","INCLINATION":"54.1760","RA_OF_ASC_NODE":"181.6822","ARG_OF_PERICENTER":"14.1321","MEAN_ANOMALY":"345.9588","EPHEMERIS_TYPE":"0","CLASSIFICATION_TYPE":"U","NORAD_CAT_ID":"43603","ELEMENT_SET_NO":"999","REV_AT_EPOCH":"5277","BSTAR":"0.00000000000000","MEAN_MOTION_DOT":"0.00000092","MEAN_MOTION_DDOT":"0.0000000000000","SEMIMAJOR_AXIS":"27906.565","PERIOD":"773.249","APOAPSIS":"21541.002","PERIAPSIS":"21515.858","OBJECT_TYPE":"PAYLOAD","RCS_SIZE":"LARGE","COUNTRY_CODE":"PRC","LAUNCH_DATE":"2018-08-24","SITE":"XSC","DECAY_DATE":null,"FILE":"5218461","GP_ID":"325572495","TLE_LINE0":"0 BEIDOU 3M12","TLE_LINE1":"1 43603U 18067B   26148.17658029  .00000092  00000-0  00000+0 0  9997","TLE_LINE2":"2 43603  54.1760 181.6822 0004505  14.1321 345.9588  1.86227234 52773"},{"CCSDS_OMM_VERS":"3.0","COMMENT":"GENERATED VIA SPACE-TRACK.ORG API","CREATION_DATE":"2026-05-30T07:26:56","ORIGINATOR":"18 SPCS","OBJECT_NAME":"BEIDOU 3M12","OBJECT_ID":"2018-067B","CENTER_NAME":"EARTH","REF_FRAME":"TEME","TIME_SYSTEM":"UTC","MEAN_ELEMENT_THEORY":"SGP4","EPOCH":"2026-05-29T18:53:56.605344","MEAN_MOTION":"1.86227256","ECCENTRICITY":"0.00045170","INCLINATION":"54.1762","RA_OF_ASC_NODE":"181.6275","ARG_OF_PERICENTER":"14.2309","MEAN_ANOMALY":"345.8603","EPHEMERIS_TYPE":"0","CLASSIFICATION_TYPE":"U","NORAD_CAT_ID":"43603","ELEMENT_SET_NO":"999","REV_AT_EPOCH":"5280","BSTAR":"0.00000000000000","MEAN_MOTION_DOT":"0.00000089","MEAN_MOTION_DDOT":"0.0000000000000","SEMIMAJOR_AXIS":"27906.563","PERIOD":"773.249","APOAPSIS":"21541.033","PERIAPSIS":"21515.822","OBJECT_TYPE":"PAYLOAD","RCS_SIZE":"LARGE","COUNTRY_CODE":"PRC","LAUNCH_DATE":"2018-08-24","SITE":"XSC","DECAY_DATE":null,"FILE":"5221707","GP_ID":"325911206","TLE_LINE0":"0 BEIDOU 3M12","TLE_LINE1":"1 43603U 18067B   26149.78746071  .00000089  00000-0  00000+0 0  9996","TLE_LINE2":"2 43603  54.1762 181.6275 0004517  14.2309 345.8603  1.86227256 52802"},{"CCSDS_OMM_VERS":"3.0","COMMENT":"GENERATED VIA SPACE-TRACK.ORG API","CREATION_DATE":"2026-05-30T07:49:03","ORIGINATOR":"18 SPCS","OBJECT_NAME":"BEIDOU 3M12","OBJECT_ID":"2018-067B","CENTER_NAME":"EARTH","REF_FRAME":"TEME","TIME_SYSTEM":"UTC","MEAN_ELEMENT_THEORY":"SGP4","EPOCH":"2026-05-29T18:53:56.606208","MEAN_MOTION":"1.86227256","ECCENTRICITY":"0.00045166","INCLINATION":"54.1762","RA_OF_ASC_NODE":"181.6276","ARG_OF_PERICENTER":"14.2309","MEAN_ANOMALY":"345.8603","EPHEMERIS_TYPE":"0","CLASSIFICATION_TYPE":"U","NORAD_CAT_ID":"43603","ELEMENT_SET_NO":"999","REV_AT_EPOCH":"5280","BSTAR":"0.00000000000000","MEAN_MOTION_DOT":"0.00000089","MEAN_MOTION_DDOT":"0.0000000000000","SEMIMAJOR_AXIS":"27906.563","PERIOD":"773.249","APOAPSIS":"21541.032","PERIAPSIS":"21515.823","OBJECT_TYPE":"PAYLOAD","RCS_SIZE":"LARGE","COUNTRY_CODE":"PRC","LAUNCH_DATE":"2018-08-24","SITE":"XSC","DECAY_DATE":null,"FILE":"5222214","GP_ID":"325976427","TLE_LINE0":"0 BEIDOU 3M12","TLE_LINE1":"1 43603U 18067B   26149.78746072  .00000089  00000-0  00000-0 0  9998","TLE_LINE2":"2 43603  54.1762 181.6276 0004517  14.2309 345.8603  1.86227256 52803"},{"CCSDS_OMM_VERS":"3.0","COMMENT":"GENERATED VIA SPACE-TRACK.ORG API","CREATION_DATE":"2026-05-31T06:06:41","ORIGINATOR":"18 SPCS","OBJECT_NAME":"BEIDOU 3M12","OBJECT_ID":"2018-067B","CENTER_NAME":"EARTH","REF_FRAME":"TEME","TIME_SYSTEM":"UTC","MEAN_ELEMENT_THEORY":"SGP4","EPOCH":"2026-05-30T07:47:09.749760","MEAN_MOTION":"1.86227292","ECCENTRICITY":"0.00045089","INCLINATION":"54.1764","RA_OF_ASC_NODE":"181.6095","ARG_OF_PERICENTER":"14.1807","MEAN_ANOMALY":"345.9095","EPHEMERIS_TYPE":"0","CLASSIFICATION_TYPE":"U","NORAD_CAT_ID":"43603","ELEMENT_SET_NO":"999","REV_AT_EPOCH":"5281","BSTAR":"0.00000000000000","MEAN_MOTION_DOT":"0.00000086","MEAN_MOTION_DDOT":"0.0000000000000","SEMIMAJOR_AXIS":"27906.559","PERIOD":"773.249","APOAPSIS":"21541.007","PERIAPSIS":"21515.841","OBJECT_TYPE":"PAYLOAD","RCS_SIZE":"LARGE","COUNTRY_CODE":"PRC","LAUNCH_DATE":"2018-08-24","SITE":"XSC","DECAY_DATE":null,"FILE":"5223946","GP_ID":"326205404","TLE_LINE0":"0 BEIDOU 3M12","TLE_LINE1":"1 43603U 18067B   26150.32441840  .00000086  00000-0  00000-0 0  9992","TLE_LINE2":"2 43603  54.1764 181.6095 0004509  14.1807 345.9095  1.86227292 52814"}]